[
  {
    "model": "backend.language",
    "fields": {
      "title": "Anishinaabemowin",
      "alternate_names": "Saulteau, Saulteaux, Ojibwe, Ojibway, Ojibwa, Plains Ojibway",
      "language_family": ["Algonquian"],
      "language_code": "oji"
    }
  },
  {
    "model": "backend.language",
    "fields": {
      "title": "nēhiyawēwin",
      "alternate_names": "Nehiyawewin, ᓀᐦᐃᔭᐍᐏᐣ, Plains Cree, Cree",
      "language_family": ["Algonquian"],
      "language_code": "crk"
    }
  },
  {
    "model": "backend.language",
    "fields": {
      "title": "Dakelh",
      "alternate_names": "Dakeł, Carrier, ᑕᗸᒡ, Taculli, Takulie",
      "language_family": ["Na-Dene"],
      "language_code": "crx, caf"
    }
  },
  {
    "model": "backend.language",
    "fields": {
      "title": "Dane-Ẕaa",
      "alternate_names": "Dane-ẕaa Ẕáágéʔ, Beaver, Dunne-ẕa, ᑕᓀ ᖚ",
      "language_family": ["Na-Dene"],
      "language_code": "bea"
    }
  },
  {
    "model": "backend.language",
    "fields": {
      "title": "Danezāgéʼ",
      "alternate_names": "Kaska, Kaska Dena",
      "language_family": ["Na-Dene"],
      "language_code": "kkz"
    }
  },
  {
    "model": "backend.language",
    "fields": {
      "title": "Dene Kʼe",
      "alternate_names": "Slavey, Slave, Dene Kʼeh, Dene, Dené, Dené Thaʼ, Dené Dháh, Dene Zhatıé, Achaʼotinne",
      "language_family": ["Na-Dene"],
      "language_code": "den"
    }
  },
  {
    "model": "backend.language",
    "fields": {
      "title": "Lingít",
      "alternate_names": "Łingít, Tlingit",
      "language_family": ["Na-Dene"],
      "language_code": "tli"
    }
  },
  {
    "model": "backend.language",
    "fields": {
      "title": "Nedutʼen / Witsuwitʼen",
      "alternate_names": "Nedutʼen, Nadotʼen, Witsuwitʼen, Babine, Natʼootʼen, Wetʼsuwetʼen, Babine-Witsuwitʼen, Bulkley Valley Language, Lakes District Language",
      "language_family": ["Na-Dene"],
      "language_code": "bcr"
    }
  },
  {
    "model": "backend.language",
    "fields": {
      "title": "Southern Tutchone",
      "alternate_names": "Tutchone",
      "language_family": ["Na-Dene"],
      "language_code": "tce"
    }
  },
  {
    "model": "backend.language",
    "fields": {
      "title": "Tāłtān",
      "alternate_names": "Tahltan, Didene kʼeh, Nahanni",
      "language_family": ["Na-Dene"],
      "language_code": "tht"
    }
  },
  {
    "model": "backend.language",
    "fields": {
      "title": "Tseʼkhene",
      "alternate_names": "Sekani, Tsekʼene, Tsekʼehne, Sékanais",
      "language_family": ["Na-Dene"],
      "language_code": "sek"
    }
  },
  {
    "model": "backend.language",
    "fields": {
      "title": "Tsilhqotʼin",
      "alternate_names": "Chilcotin, Tsilhqutʼin, Tzilkotin",
      "language_family": ["Na-Dene"],
      "language_code": "clc"
    }
  },
  {
    "model": "backend.language",
    "fields": {
      "title": "Ktunaxa",
      "alternate_names": "Kootenay, Kootenai, Kutenai",
      "language_family": ["Ktunaxa"],
      "language_code": "kut"
    }
  },
  {
    "model": "backend.language",
    "fields": {
      "title": "Éy7á7juuthem",
      "alternate_names": "Comox, Island Comox, Mainland Comox, Sliammon, Comox-Sliammon",
      "language_family": ["Salishan"],
      "language_code": "coo"
    }
  },
  {
    "model": "backend.language",
    "fields": {
      "title": "Hulʼqʼumiʼnumʼ / Halqʼeméylem / hən̓q̓əmin̓əm̓",
      "alternate_names": "Hulʼqʼumiʼnumʼ, Halqʼeméylem, hən̓q̓əmin̓əm̓, Halkomelem, Island Hulʼqʼumiʼnumʼ, Upriver Halqʼeméylem, Downriver hən̓q̓əmin̓əm̓",
      "language_family": ["Salishan"],
      "language_code": "hur"
    }
  },
  {
    "model": "backend.language",
    "fields": {
      "title": "Nłeʔkepmxcín",
      "alternate_names": "Nlakaʼpamux, Nlha7kápmx, Thompson Salish",
      "language_family": ["Salishan"],
      "language_code": "thp"
    }
  },
  {
    "model": "backend.language",
    "fields": {
      "title": "Nsyilxcən",
      "alternate_names": "Okanagan, Colville-Okanagan",
      "language_family": ["Salishan"],
      "language_code": "oka"
    }
  },
  {
    "model": "backend.language",
    "fields": {
      "title": "Nuxalk",
      "alternate_names": "Bella Coola, Nass",
      "language_family": ["Salishan"],
      "language_code": "blc"
    }
  },
  {
    "model": "backend.language",
    "fields": {
      "title": "Secwepemctsín",
      "alternate_names": "Shuswap, Secwepemc",
      "language_family": ["Salishan"],
      "language_code": "shs"
    }
  },
  {
    "model": "backend.language",
    "fields": {
      "title": "SENĆOŦEN / Malchosen / Lekwungen / Semiahmoo / TʼSou-ke",
      "alternate_names": "SENĆOŦEN, Malchosen, Lekwungen, Semiahmoo, TʼSou-ke, Straits Salish, Northern Straits Salish, Saanich, Tah-tu-lo, Sooke, Songhees",
      "language_family": ["Salishan"],
      "language_code": "str"
    }
  },
  {
    "model": "backend.language",
    "fields": {
      "title": "she shashishalhem",
      "alternate_names": "sháshishálem, Sechelt",
      "language_family": ["Salishan"],
      "language_code": "sec"
    }
  },
  {
    "model": "backend.language",
    "fields": {
      "title": "Sḵwx̱wú7mesh sníchim",
      "alternate_names": "Squamish",
      "language_family": ["Salishan"],
      "language_code": "squ"
    }
  },
  {
    "model": "backend.language",
    "fields": {
      "title": "St̓át̓imcets",
      "alternate_names": "Sƛ̓aƛ̓imxǝc, Ucwalmícwts, Lillooet, St̓át̓imc, Statimc, Stlʼatlʼimx, Stlʼatlʼimc, Sƛʼaƛʼimxǝc, Stlatliumh, Slatlemuk",
      "language_family": ["Salishan"],
      "language_code": "lil"
    }
  },
  {
    "model": "backend.language",
    "fields": {
      "title": "Gitsenimx̱",
      "alternate_names": "Gitxsanimx̱, Gitxsanimax̱, Gitksan, Gitxsan, Gitxsen",
      "language_family": ["Tsimshianic"],
      "language_code": "git"
    }
  },
  {
    "model": "backend.language",
    "fields": {
      "title": "Nisg̱aʼa",
      "alternate_names": "Niska, Nass, Nisgaʼa, Nishga, Niskaʼ, Niskʼaʼ",
      "language_family": ["Tsimshianic"],
      "language_code": "ncg"
    }
  },
  {
    "model": "backend.language",
    "fields": {
      "title": "Sgüüx̣s",
      "alternate_names": "Southern Tsimshian, Klemtu, Ski:xs",
      "language_family": ["Tsimshianic"],
      "language_code": "tsi-sou"
    }
  },
  {
    "model": "backend.language",
    "fields": {
      "title": "Sm'algya̱x",
      "alternate_names": "Tsimshian, Coast Tsimshian",
      "language_family": ["Tsimshianic"],
      "language_code": "tsi"
    }
  },
  {
    "model": "backend.language",
    "fields": {
      "title": "diitiidʔaaʔtx̣",
      "alternate_names": "Diidiitidq, Ditidaht, Nitinaht, Nitinat, Ditidaht-Pacheedaht",
      "language_family": ["Wakashan"],
      "language_code": "dtd"
    }
  },
  {
    "model": "backend.language",
    "fields": {
      "title": "Haíłzaqvḷa",
      "alternate_names": "Heiltsuk, Xai'xais, Bella Bella, Híɫzaqvḷa, Hailhzaqvla, Haíhlzaqvḷa, Heiltsukv, Heiltsukvla",
      "language_family": ["Wakashan"],
      "language_code": "hei"
    }
  },
  {
    "model": "backend.language",
    "fields": {
      "title": "Kwak̕wala",
      "alternate_names": "Kwakiutl, Kwakwakaʼwakw",
      "language_family": ["Wakashan"],
      "language_code": "kwk"
    }
  },
  {
    "model": "backend.language",
    "fields": {
      "title": "nuučaan̓uɫ",
      "alternate_names": "Nuu-chah-nulth, Nootka, Nootkans, Tahkaht",
      "language_family": ["Wakashan"],
      "language_code": "nuk"
    }
  },
  {
    "model": "backend.language",
    "fields": {
      "title": "ʼWuik̓ala",
      "alternate_names": "Oowekyala, Wuikyala, ʼUik̓ala, Oowekyala, Oweekʼala, Owekeeno, Owekeno",
      "language_family": ["Wakashan"],
      "language_code": "hei-wui"
    }
  },
  {
    "model": "backend.language",
    "fields": {
      "title": "X̄enaksialak̓ala / X̄aʼislak̓ala",
      "alternate_names": "Haisla, Kitimat, Kitlope, Northern Kwakiutl",
      "language_family": ["Wakashan"],
      "language_code": "has"
    }
  },
  {
    "model": "backend.language",
    "fields": {
      "title": "X̱aad Kil / X̱aayda Kil",
      "alternate_names": "Haida",
      "language_family": ["Haida"],
      "language_code": "hai"
    }
  }
]
